{
  "norad_id": 56707,
  "name": "STARLINK-30070",
  "history": [
    {
      "epoch": "2026-05-03T06:00:45.360000Z",
      "apogee_km": 484.02906315614746,
      "perigee_km": 482.1175299675251,
      "latitude_deg": -4.026061646147727e-06,
      "longitude_deg": 11.650591625596695,
      "height_km": 482.82427334059753,
      "semi_major_axis_km": 6861.210296561836,
      "eccentricity": 0.0001393,
      "inclination_deg": 43.0024,
      "raan_deg": 322.9965,
      "arg_perigee_deg": 271.5583,
      "mean_anomaly_deg": 88.5109,
      "mean_motion_rev_day": 15.27571918
    },
    {
      "epoch": "2026-05-04T13:23:52.260000Z",
      "apogee_km": 484.0603602164447,
      "perigee_km": 481.9704531933612,
      "latitude_deg": -3.188824245939641e-05,
      "longitude_deg": -107.80373875086015,
      "height_km": 482.6605163753854,
      "semi_major_axis_km": 6861.152406704902,
      "eccentricity": 0.0001523,
      "inclination_deg": 43.0012,
      "raan_deg": 315.6099,
      "arg_perigee_deg": 277.2481,
      "mean_anomaly_deg": 82.8197,
      "mean_motion_rev_day": 15.27591251
    },
    {
      "epoch": "2026-05-05T20:46:59.636064Z",
      "apogee_km": 484.5779517409028,
      "perigee_km": 481.70993630630164,
      "latitude_deg": 1.1958464566935842e-05,
      "longitude_deg": 132.74061763979148,
      "height_km": 483.2014643760958,
      "semi_major_axis_km": 6861.280944023602,
      "eccentricity": 0.000209,
      "inclination_deg": 43.0053,
      "raan_deg": 308.2239,
      "arg_perigee_deg": 258.7502,
      "mean_anomaly_deg": 101.3115,
      "mean_motion_rev_day": 15.27548325
    },
    {
      "epoch": "2026-05-06T18:45:12.825216Z",
      "apogee_km": 484.5494200844996,
      "perigee_km": 481.6526053955213,
      "latitude_deg": 1.597314258718279e-06,
      "longitude_deg": 157.11375889008315,
      "height_km": 482.8155551568269,
      "semi_major_axis_km": 6861.23801274001,
      "eccentricity": 0.0002111,
      "inclination_deg": 43.0045,
      "raan_deg": 303.0543,
      "arg_perigee_deg": 272.5018,
      "mean_anomaly_deg": 87.5592,
      "mean_motion_rev_day": 15.27562662
    },
    {
      "epoch": "2026-05-07T19:51:42.469632Z",
      "apogee_km": 483.9086916857905,
      "perigee_km": 482.21534776772114,
      "latitude_deg": -4.771080389208966e-05,
      "longitude_deg": 133.5525256648161,
      "height_km": 482.9056064522925,
      "semi_major_axis_km": 6861.199019726755,
      "eccentricity": 0.0001234,
      "inclination_deg": 43.0035,
      "raan_deg": 297.1478,
      "arg_perigee_deg": 265.4856,
      "mean_anomaly_deg": 94.5854,
      "mean_motion_rev_day": 15.27575684
    },
    {
      "epoch": "2026-05-08T19:24:02.704032Z",
      "apogee_km": 483.9685502363636,
      "perigee_km": 482.1626817078404,
      "latitude_deg": 5.280096350538919e-05,
      "longitude_deg": 133.9638094743712,
      "height_km": 482.90421444802956,
      "semi_major_axis_km": 6861.202615972102,
      "eccentricity": 0.0001316,
      "inclination_deg": 43.0049,
      "raan_deg": 291.61,
      "arg_perigee_deg": 266.0985,
      "mean_anomaly_deg": 93.9717,
      "mean_motion_rev_day": 15.27574483
    },
    {
      "epoch": "2026-05-09T17:22:14.805408Z",
      "apogee_km": 484.9763731100884,
      "perigee_km": 481.1985829124951,
      "latitude_deg": -3.0213828272757764e-05,
      "longitude_deg": 158.3332195946129,
      "height_km": 482.40806751744066,
      "semi_major_axis_km": 6861.2244780112915,
      "eccentricity": 0.0002753,
      "inclination_deg": 43.0012,
      "raan_deg": 286.4322,
      "arg_perigee_deg": 284.0091,
      "mean_anomaly_deg": 76.0454,
      "mean_motion_rev_day": 15.27567182
    },
    {
      "epoch": "2026-05-10T16:54:35.535744Z",
      "apogee_km": 484.1354999810437,
      "perigee_km": 481.9920608572411,
      "latitude_deg": 6.511371412223754e-05,
      "longitude_deg": 158.7460274404801,
      "height_km": 482.76949324849244,
      "semi_major_axis_km": 6861.200780419143,
      "eccentricity": 0.0001562,
      "inclination_deg": 43.004,
      "raan_deg": 280.898,
      "arg_perigee_deg": 273.829,
      "mean_anomaly_deg": 86.2384,
      "mean_motion_rev_day": 15.27575096
    },
    {
      "epoch": "2026-05-11T19:35:15.071424Z",
      "apogee_km": 483.83103044305153,
      "perigee_km": 482.3462612132953,
      "latitude_deg": -5.505747062311539e-05,
      "longitude_deg": 111.20855479933515,
      "height_km": 482.8246075618327,
      "semi_major_axis_km": 6861.225645828174,
      "eccentricity": 0.0001082,
      "inclination_deg": 43.0014,
      "raan_deg": 274.621,
      "arg_perigee_deg": 273.1379,
      "mean_anomaly_deg": 86.9348,
      "mean_motion_rev_day": 15.27566792
    },
    {
      "epoch": "2026-05-12T15:59:16.167840Z",
      "apogee_km": 484.06100426010835,
      "perigee_km": 481.91758840513467,
      "latitude_deg": 2.1345936868566656e-05,
      "longitude_deg": 159.56675745703174,
      "height_km": 482.7886757951484,
      "semi_major_axis_km": 6861.126296332622,
      "eccentricity": 0.0001562,
      "inclination_deg": 43.0022,
      "raan_deg": 269.8215,
      "arg_perigee_deg": 268.8073,
      "mean_anomaly_deg": 91.26,
      "mean_motion_rev_day": 15.27599971
    }
  ]
}